[{"OBJECT_NAME":"STARLINK-36873","OBJECT_ID":"2026-037S","EPOCH":"2026-03-05T16:00:00.999936","MEAN_MOTION":15.93761352,"ECCENTRICITY":0.0001526,"INCLINATION":42.9996,"RA_OF_ASC_NODE":223.2637,"ARG_OF_PERICENTER":282.3499,"MEAN_ANOMALY":77.007,"EPHEMERIS_TYPE":0,"CLASSIFICATION_TYPE":"U","NORAD_CAT_ID":67948,"ELEMENT_SET_NO":999,"REV_AT_EPOCH":255,"BSTAR":-0.0040838,"MEAN_MOTION_DOT":-0.01535695,"MEAN_MOTION_DDOT":0.00067408},{"OBJECT_NAME":"STARLINK-36863","OBJECT_ID":"2026-037T","EPOCH":"2026-03-05T16:00:00.999936","MEAN_MOTION":15.9388162,"ECCENTRICITY":0.000146,"INCLINATION":42.9998,"RA_OF_ASC_NODE":223.2562,"ARG_OF_PERICENTER":278.4757,"MEAN_ANOMALY":83.8877,"EPHEMERIS_TYPE":0,"CLASSIFICATION_TYPE":"U","NORAD_CAT_ID":67949,"ELEMENT_SET_NO":999,"REV_AT_EPOCH":255,"BSTAR":-0.0040619,"MEAN_MOTION_DOT":-0.01537237,"MEAN_MOTION_DDOT":0.00067613},{"OBJECT_NAME":"STARLINK-36887","OBJECT_ID":"2026-037U","EPOCH":"2026-03-05T16:00:00.999936","MEAN_MOTION":15.94014756,"ECCENTRICITY":0.0001448,"INCLINATION":42.9996,"RA_OF_ASC_NODE":223.2481,"ARG_OF_PERICENTER":274.8577,"MEAN_ANOMALY":90.6035,"EPHEMERIS_TYPE":0,"CLASSIFICATION_TYPE":"U","NORAD_CAT_ID":67950,"ELEMENT_SET_NO":999,"REV_AT_EPOCH":255,"BSTAR":-0.0040786,"MEAN_MOTION_DOT":-0.01554326,"MEAN_MOTION_DDOT":0.00069093},{"OBJECT_NAME":"STARLINK-36897","OBJECT_ID":"2026-037V","EPOCH":"2026-03-05T16:00:00.999936","MEAN_MOTION":15.94123797,"ECCENTRICITY":0.0001393,"INCLINATION":42.9998,"RA_OF_ASC_NODE":223.2416,"ARG_OF_PERICENTER":281.1085,"MEAN_ANOMALY":87.0461,"EPHEMERIS_TYPE":0,"CLASSIFICATION_TYPE":"U","NORAD_CAT_ID":67951,"ELEMENT_SET_NO":999,"REV_AT_EPOCH":255,"BSTAR":-0.0039983,"MEAN_MOTION_DOT":-0.01532845,"MEAN_MOTION_DDOT":0.00067421},{"OBJECT_NAME":"STARLINK-36381","OBJECT_ID":"2026-037W","EPOCH":"2026-03-05T16:00:00.999936","MEAN_MOTION":15.94387839,"ECCENTRICITY":0.0001707,"INCLINATION":42.9999,"RA_OF_ASC_NODE":223.2292,"ARG_OF_PERICENTER":277.6152,"MEAN_ANOMALY":95.4062,"EPHEMERIS_TYPE":0,"CLASSIFICATION_TYPE":"U","NORAD_CAT_ID":67952,"ELEMENT_SET_NO":999,"REV_AT_EPOCH":255,"BSTAR":-0.0039555,"MEAN_MOTION_DOT":-0.01538001,"MEAN_MOTION_DDOT":0.00068017},{"OBJECT_NAME":"STARLINK-36824","OBJECT_ID":"2026-037X","EPOCH":"2026-03-05T16:00:00.999936","MEAN_MOTION":15.94252582,"ECCENTRICITY":0.0001503,"INCLINATION":42.9999,"RA_OF_ASC_NODE":223.2353,"ARG_OF_PERICENTER":281.3322,"MEAN_ANOMALY":89.2659,"EPHEMERIS_TYPE":0,"CLASSIFICATION_TYPE":"U","NORAD_CAT_ID":67953,"ELEMENT_SET_NO":999,"REV_AT_EPOCH":255,"BSTAR":-0.0039607,"MEAN_MOTION_DOT":-0.01528968,"MEAN_MOTION_DDOT":0.00067194},{"OBJECT_NAME":"STARLINK-36869","OBJECT_ID":"2026-037Y","EPOCH":"2026-03-05T16:00:00.999936","MEAN_MOTION":15.94508887,"ECCENTRICITY":0.0001505,"INCLINATION":42.9998,"RA_OF_ASC_NODE":223.2236,"ARG_OF_PERICENTER":282.584,"MEAN_ANOMALY":92.5263,"EPHEMERIS_TYPE":0,"CLASSIFICATION_TYPE":"U","NORAD_CAT_ID":67954,"ELEMENT_SET_NO":999,"REV_AT_EPOCH":255,"BSTAR":-0.0038899,"MEAN_MOTION_DOT":-0.01522453,"MEAN_MOTION_DDOT":0.00066839},{"OBJECT_NAME":"STARLINK-36872","OBJECT_ID":"2026-037Z","EPOCH":"2026-03-05T16:00:00.999936","MEAN_MOTION":15.94753757,"ECCENTRICITY":0.0001491,"INCLINATION":42.9997,"RA_OF_ASC_NODE":223.2096,"ARG_OF_PERICENTER":282.4869,"MEAN_ANOMALY":98.0635,"EPHEMERIS_TYPE":0,"CLASSIFICATION_TYPE":"U","NORAD_CAT_ID":67955,"ELEMENT_SET_NO":999,"REV_AT_EPOCH":255,"BSTAR":-0.0038314,"MEAN_MOTION_DOT":-0.01519454,"MEAN_MOTION_DDOT":0.00066761},{"OBJECT_NAME":"STARLINK-36918","OBJECT_ID":"2026-037AA","EPOCH":"2026-03-05T16:00:00.999936","MEAN_MOTION":15.94876824,"ECCENTRICITY":0.000155,"INCLINATION":42.9998,"RA_OF_ASC_NODE":223.2025,"ARG_OF_PERICENTER":281.1258,"MEAN_ANOMALY":102.2865,"EPHEMERIS_TYPE":0,"CLASSIFICATION_TYPE":"U","NORAD_CAT_ID":67956,"ELEMENT_SET_NO":999,"REV_AT_EPOCH":255,"BSTAR":-0.003807,"MEAN_MOTION_DOT":-0.01519796,"MEAN_MOTION_DDOT":0.00066871},{"OBJECT_NAME":"STARLINK-36829","OBJECT_ID":"2026-037AB","EPOCH":"2026-03-05T16:00:00.999936","MEAN_MOTION":15.94628939,"ECCENTRICITY":0.0001653,"INCLINATION":42.9996,"RA_OF_ASC_NODE":223.2173,"ARG_OF_PERICENTER":282.6908,"MEAN_ANOMALY":94.9549,"EPHEMERIS_TYPE":0,"CLASSIFICATION_TYPE":"U","NORAD_CAT_ID":67957,"ELEMENT_SET_NO":999,"REV_AT_EPOCH":255,"BSTAR":-0.0038472,"MEAN_MOTION_DOT":-0.01515608,"MEAN_MOTION_DDOT":0.00066368},{"OBJECT_NAME":"STARLINK-36799","OBJECT_ID":"2026-037AC","EPOCH":"2026-03-05T16:00:00.999936","MEAN_MOTION":15.95000029,"ECCENTRICITY":0.0001682,"INCLINATION":42.9994,"RA_OF_ASC_NODE":223.1966,"ARG_OF_PERICENTER":283.9444,"MEAN_ANOMALY":101.9941,"EPHEMERIS_TYPE":0,"CLASSIFICATION_TYPE":"U","NORAD_CAT_ID":67958,"ELEMENT_SET_NO":999,"REV_AT_EPOCH":255,"BSTAR":-0.0037776,"MEAN_MOTION_DOT":-0.01518178,"MEAN_MOTION_DDOT":0.00066823},{"OBJECT_NAME":"STARLINK-36834","OBJECT_ID":"2026-037AD","EPOCH":"2026-03-05T16:00:00.999936","MEAN_MOTION":15.95230234,"ECCENTRICITY":0.0001532,"INCLINATION":42.9996,"RA_OF_ASC_NODE":223.1817,"ARG_OF_PERICENTER":278.997,"MEAN_ANOMALY":112.6411,"EPHEMERIS_TYPE":0,"CLASSIFICATION_TYPE":"U","NORAD_CAT_ID":67959,"ELEMENT_SET_NO":999,"REV_AT_EPOCH":255,"BSTAR":-0.003685,"MEAN_MOTION_DOT":-0.01499676,"MEAN_MOTION_DDOT":0.00065486},{"OBJECT_NAME":"STARLINK-36841","OBJECT_ID":"2026-037AE","EPOCH":"2026-03-05T16:00:00.999936","MEAN_MOTION":15.95125495,"ECCENTRICITY":0.0001448,"INCLINATION":42.9995,"RA_OF_ASC_NODE":223.1892,"ARG_OF_PERICENTER":280.2517,"MEAN_ANOMALY":108.3858,"EPHEMERIS_TYPE":0,"CLASSIFICATION_TYPE":"U","NORAD_CAT_ID":67960,"ELEMENT_SET_NO":999,"REV_AT_EPOCH":255,"BSTAR":-0.0037603,"MEAN_MOTION_DOT":-0.0152139,"MEAN_MOTION_DDOT":0.00067168},{"OBJECT_NAME":"STARLINK-36912","OBJECT_ID":"2026-038A","EPOCH":"2026-03-05T16:00:00.999936","MEAN_MOTION":16.00267875,"ECCENTRICITY":0.0001093,"INCLINATION":97.2764,"RA_OF_ASC_NODE":74.6278,"ARG_OF_PERICENTER":90.6568,"MEAN_ANOMALY":271.729,"EPHEMERIS_TYPE":0,"CLASSIFICATION_TYPE":"U","NORAD_CAT_ID":67961,"ELEMENT_SET_NO":999,"REV_AT_EPOCH":255,"BSTAR":-0.0030798,"MEAN_MOTION_DOT":-0.01572209,"MEAN_MOTION_DDOT":0.00076003},{"OBJECT_NAME":"STARLINK-36881","OBJECT_ID":"2026-038B","EPOCH":"2026-03-05T16:00:00.999936","MEAN_MOTION":16.00340839,"ECCENTRICITY":0.0001049,"INCLINATION":97.2761,"RA_OF_ASC_NODE":74.6284,"ARG_OF_PERICENTER":96.3769,"MEAN_ANOMALY":267.8586,"EPHEMERIS_TYPE":0,"CLASSIFICATION_TYPE":"U","NORAD_CAT_ID":67962,"ELEMENT_SET_NO":999,"REV_AT_EPOCH":255,"BSTAR":-0.003046,"MEAN_MOTION_DOT":-0.0156149,"MEAN_MOTION_DDOT":0.00075103},{"OBJECT_NAME":"STARLINK-36357","OBJECT_ID":"2026-038C","EPOCH":"2026-03-05T16:00:00.999936","MEAN_MOTION":16.00582175,"ECCENTRICITY":0.0001078,"INCLINATION":97.2759,"RA_OF_ASC_NODE":74.6307,"ARG_OF_PERICENTER":94.265,"MEAN_ANOMALY":274.8562,"EPHEMERIS_TYPE":0,"CLASSIFICATION_TYPE":"U","NORAD_CAT_ID":67963,"ELEMENT_SET_NO":999,"REV_AT_EPOCH":255,"BSTAR":-0.0030125,"MEAN_MOTION_DOT":-0.01565598,"MEAN_MOTION_DDOT":0.00075679}]
