STARLINK-36873          
1 67948U 26037S   26064.66667824 -.01535695  67408-3 -40838-2 0  9994
2 67948  42.9996 223.2637 0001526 282.3499  77.0070 15.93761352  2556
STARLINK-36863          
1 67949U 26037T   26064.66667824 -.01537237  67613-3 -40619-2 0  9994
2 67949  42.9998 223.2562 0001460 278.4757  83.8877 15.93881620  2557
STARLINK-36887          
1 67950U 26037U   26064.66667824 -.01554326  69093-3 -40786-2 0  9993
2 67950  42.9996 223.2481 0001448 274.8577  90.6035 15.94014756  2554
STARLINK-36897          
1 67951U 26037V   26064.66667824 -.01532845  67421-3 -39983-2 0  9996
2 67951  42.9998 223.2416 0001393 281.1085  87.0461 15.94123797  2558
STARLINK-36381          
1 67952U 26037W   26064.66667824 -.01538001  68017-3 -39555-2 0  9994
2 67952  42.9999 223.2292 0001707 277.6152  95.4062 15.94387839  2555
STARLINK-36824          
1 67953U 26037X   26064.66667824 -.01528968  67194-3 -39607-2 0  9999
2 67953  42.9999 223.2353 0001503 281.3322  89.2659 15.94252582  2558
STARLINK-36869          
1 67954U 26037Y   26064.66667824 -.01522453  66839-3 -38899-2 0  9990
2 67954  42.9998 223.2236 0001505 282.5840  92.5263 15.94508887  2558
STARLINK-36872          
1 67955U 26037Z   26064.66667824 -.01519454  66761-3 -38314-2 0  9994
2 67955  42.9997 223.2096 0001491 282.4869  98.0635 15.94753757  2558
STARLINK-36918          
1 67956U 26037AA  26064.66667824 -.01519796  66871-3 -38070-2 0  9995
2 67956  42.9998 223.2025 0001550 281.1258 102.2865 15.94876824  2550
STARLINK-36829          
1 67957U 26037AB  26064.66667824 -.01515608  66368-3 -38472-2 0  9991
2 67957  42.9996 223.2173 0001653 282.6908  94.9549 15.94628939  2553
STARLINK-36799          
1 67958U 26037AC  26064.66667824 -.01518178  66823-3 -37776-2 0  9999
2 67958  42.9994 223.1966 0001682 283.9444 101.9941 15.95000029  2552
STARLINK-36834          
1 67959U 26037AD  26064.66667824 -.01499676  65486-3 -36850-2 0  9997
2 67959  42.9996 223.1817 0001532 278.9970 112.6411 15.95230234  2556
STARLINK-36841          
1 67960U 26037AE  26064.66667824 -.01521390  67168-3 -37603-2 0  9994
2 67960  42.9995 223.1892 0001448 280.2517 108.3858 15.95125495  2558
STARLINK-36912          
1 67961U 26038A   26064.66667824 -.01572209  76003-3 -30798-2 0  9997
2 67961  97.2764  74.6278 0001093  90.6568 271.7290 16.00267875  2559
STARLINK-36881          
1 67962U 26038B   26064.66667824 -.01561490  75103-3 -30460-2 0  9994
2 67962  97.2761  74.6284 0001049  96.3769 267.8586 16.00340839  2557
STARLINK-36357          
1 67963U 26038C   26064.66667824 -.01565598  75679-3 -30125-2 0  9994
2 67963  97.2759  74.6307 0001078  94.2650 274.8562 16.00582175  2552
